*******************************************************************************
 Revised: September 28, 2017           Jupiter                              599
 
 PHYSICAL DATA (updated 2018-Aug-15):
  Mass x10^24 (kg)      = 1898.13+-.19    Density (g/cm^3)       =   1.326
  Equat. radius (1 bar) = 71492+-4 km     Polar radius (km)      =  66854+-10
  Vol. Mean Radius (km) = 69911+-6        Flattening             =   0.06487
  Geometric Albedo      = 0.52            Rocky core mass (Mc/M) =  0.0261
  Sid. rot. period (III)= 9h 55m 29.71 s  Sid. rot. rate (rad/s) =  0.00017585 
  Mean solar day, hrs   = ~9.9259         
  GM (km^3/s^2)         = 126686534.911   GM 1-sigma (km^3/s^2)  =  +-1.5
  Equ. grav, ge (m/s^2) = 24.79           Pol. grav, gp (m/s^2)  =  28.34
  Vis. magnitude V(1,0) = -9.40
  Vis. mag. (opposition)= -2.70           Obliquity to orbit     =  3.13 deg
  Sidereal orbit period = 11.861982204 y  Sidereal orbit period  = 4332.589 d
  Mean daily motion     = 0.0831294 deg/d Mean orbit speed, km/s = 13.0697
  Atmos. temp. (1 bar)  = 165+-5 K        Escape speed, km/s    =  59.5           
  A_roche(ice)/Rp       =  2.76           Hill's sphere rad. Rp  = 740
                                 Perihelion   Aphelion     Mean
  Solar Constant (W/m^2)         56           46           51
  Maximum Planetary IR (W/m^2)   13.7         13.4         13.6
  Minimum Planetary IR (W/m^2)   13.7         13.4         13.6
*******************************************************************************
 
 
*******************************************************************************
Ephemeris / WWW_USER Tue Apr 23 03:18:56 2019 Pasadena, USA      / Horizons    
*******************************************************************************
Target body name: Jupiter (599)                   {source: jup341}
Center body name: Sun (10)                        {source: DE431mx}
Center-site name: BODY CENTER
*******************************************************************************
Start time      : A.D. 1919-Apr-22 00:00:00.0000 TDB
Stop  time      : A.D. 2019-Apr-22 00:00:00.0000 TDB
Step-size       : 10000 steps
*******************************************************************************
Center geodetic : 0.00000000,0.00000000,0.0000000 {E-lon(deg),Lat(deg),Alt(km)}
Center cylindric: 0.00000000,0.00000000,0.0000000 {E-lon(deg),Dxy(km),Dz(km)}
Center pole/equ : IAU_SUN                         {East-longitude positive}
Center radii    : 696000.0 x 696000.0 x 696000.0 k{Equator, meridian, pole}    
Output units    : AU-D                                                         
Output type     : GEOMETRIC cartesian states
Output format   : 2 (position and velocity)
Coordinate systm: Body Mean Equator and Node of Date                           
*******************************************************************************
            JDTDB,            Calendar Date (TDB),        delta-T,                      X,                      Y,                      Z,                     VX,                     VY,                     VZ,
******************************************************************************************************************************************************************************************************************
$$SOE
2439054.625000000, A.D. 1965-Oct-21 03:00:00.0000,      36.402441,  1.996245166355598E+00,  4.688949405029674E+00, -1.034719764635542E-01, -6.914155187753180E-03,  3.291699116510850E-03, -8.079240134678647E-04,
2439058.277500000, A.D. 1965-Oct-24 18:39:36.0000,      36.407207,  1.970964442386504E+00,  4.700901832481569E+00, -1.064209646824668E-01, -6.929041426923426E-03,  3.253228275383430E-03, -8.068903876743661E-04,
2439061.930000000, A.D. 1965-Oct-28 10:19:12.0000,      36.411980,  1.945625567766229E+00,  4.712716133333769E+00, -1.093667636422542E-01, -6.945520685941738E-03,  3.214728812875624E-03, -8.060714346189805E-04,
2439065.582500000, A.D. 1965-Nov-01 01:58:48.0000,      36.416757,  1.920229720150249E+00,  4.724388995063293E+00, -1.123091358319335E-01, -6.960332168108364E-03,  3.176947214177697E-03, -8.050643001529104E-04,
2439069.235000000, A.D. 1965-Nov-04 17:38:24.0000,      36.421540,  1.894774920112630E+00,  4.735923864090696E+00, -1.152484829654444E-01, -6.976982355682916E-03,  3.138088641851301E-03, -8.042715862319428E-04,
2439072.887500000, A.D. 1965-Nov-08 09:18:00.0000,      36.426328,  1.869263896001639E+00,  4.747314975012409E+00, -1.181842881962091E-01, -6.991385179325325E-03,  3.099749710625421E-03, -8.032087523493149E-04,
2439076.540000000, A.D. 1965-Nov-12 00:57:36.0000,      36.431122,  1.843696917530269E+00,  4.758566018253262E+00, -1.211166640257593E-01, -7.007000817928321E-03,  3.060697680193949E-03, -8.022889455247462E-04,
2439080.192500000, A.D. 1965-Nov-15 16:37:12.0000,      36.435921,  1.818077329102058E+00,  4.769674366698516E+00, -1.240451106768695E-01, -7.021028969519358E-03,  3.023014535765213E-03, -8.012127793165227E-04,
2439083.845000000, A.D. 1965-Nov-19 08:16:48.0000,      36.440726,  1.792402118298477E+00,  4.780644036923596E+00, -1.269701829398779E-01, -7.036883607315331E-03,  2.983957460408738E-03, -8.003398670503876E-04,
2439087.497500000, A.D. 1965-Nov-22 23:56:24.0000,      36.445537,  1.766673970504266E+00,  4.791470122054578E+00, -1.298913985395039E-01, -7.051054904095806E-03,  2.945614042848151E-03, -7.992780287133678E-04,
2439091.150000000, A.D. 1965-Nov-26 15:36:00.0000,      36.450352,  1.740891717812727E+00,  4.802154639069341E+00, -1.328090067753515E-01, -7.066008800086791E-03,  2.905717633037261E-03, -7.982760775574557E-04,
2439094.802500000, A.D. 1965-Nov-30 07:15:36.0000,      36.455171,  1.715060559272462E+00,  4.812695042715529E+00, -1.357222685687646E-01, -7.079288471314272E-03,  2.867546599480212E-03, -7.971179751166753E-04,
2439098.455000000, A.D. 1965-Dec-03 22:55:12.0000,      36.459993,  1.689177410267992E+00,  4.823095363105383E+00, -1.386317477802210E-01, -7.093902572655038E-03,  2.827916793325873E-03, -7.960952108551877E-04,
2439102.107500000, A.D. 1965-Dec-07 14:34:48.0000,      36.464817,  1.663245212338285E+00,  4.833352463187687E+00, -1.415369860681618E-01, -7.107393852330687E-03,  2.789463621797887E-03, -7.949721444420229E-04,
2439105.760000000, A.D. 1965-Dec-11 06:14:24.0000,      36.469645,  1.637261028338057E+00,  4.843467115080769E+00, -1.444384263249391E-01, -7.121334738264483E-03,  2.748907974422685E-03, -7.938476643306979E-04,
2439109.412500000, A.D. 1965-Dec-14 21:54:00.0000,      36.474475,  1.611230948257384E+00,  4.853436625106079E+00, -1.473352101376025E-01, -7.133686707823616E-03,  2.710246496617776E-03, -7.925837455196130E-04,
2439113.065000000, A.D. 1965-Dec-18 13:33:36.0000,      36.479309,  1.585152383645403E+00,  4.863264068585496E+00, -1.502278047909589E-01, -7.146647399552114E-03,  2.670192158490228E-03, -7.913612986226363E-04,
2439116.717500000, A.D. 1965-Dec-22 05:13:12.0000,      36.484145,  1.559029063872288E+00,  4.872948446801429E+00, -1.531157167170276E-01, -7.159096643037839E-03,  2.631955462335821E-03, -7.901392329305026E-04,
2439120.370000000, A.D. 1965-Dec-25 20:52:48.0000,      36.488983,  1.532856564032443E+00,  4.882489948655291E+00, -1.559995650386679E-01, -7.171894336050810E-03,  2.591438490838621E-03, -7.888970077598465E-04,
2439124.022500000, A.D. 1965-Dec-29 12:32:24.0000,      36.493822,  1.506640737912305E+00,  4.891886101716429E+00, -1.588785318607076E-01, -7.183654210479055E-03,  2.552726312740697E-03, -7.875855944294953E-04,
2439127.675000000, A.D. 1966-Jan-02 04:12:00.0000,      36.500182,  1.480379407853905E+00,  4.901138066531243E+00, -1.617529694018757E-01, -7.195303148664752E-03,  2.512482971841604E-03, -7.862169508200432E-04,
2439131.327500000, A.D. 1966-Jan-05 19:51:36.0000,      36.509754,  1.454077496392701E+00,  4.910246632002444E+00, -1.646222849220857E-01, -7.206957382238964E-03,  2.474468311403718E-03, -7.849299210130074E-04,
2439134.980000000, A.D. 1966-Jan-09 11:31:12.0000,      36.519324,  1.427729955529363E+00,  4.919211852021284E+00, -1.674871740375574E-01, -7.218821853462225E-03,  2.434208612226117E-03, -7.836062125631937E-04,
2439138.632500000, A.D. 1966-Jan-13 03:10:48.0000,      36.528894,  1.401341690544836E+00,  4.928032258565772E+00, -1.703469777537664E-01, -7.230444939959130E-03,  2.395469009825177E-03, -7.823096863784611E-04,
2439142.285000000, A.D. 1966-Jan-16 18:50:24.0000,      36.538464,  1.374910419696854E+00,  4.936706715852734E+00, -1.732019894631439E-01, -7.241264048493770E-03,  2.354826593999742E-03, -7.808536497595999E-04,
2439145.937500000, A.D. 1966-Jan-20 10:30:00.0000,      36.548033,  1.348442149959308E+00,  4.945236971703193E+00, -1.760515057982039E-01, -7.252295028752779E-03,  2.316446490871230E-03, -7.795073847527138E-04,
2439149.590000000, A.D. 1966-Jan-24 02:09:36.0000,      36.557601,  1.321932346019314E+00,  4.953622939933904E+00, -1.788961490617899E-01, -7.263063616256578E-03,  2.276103467736398E-03, -7.780713605120922E-04,
2439153.242500000, A.D. 1966-Jan-27 17:49:12.0000,      36.567165,  1.295384868433011E+00,  4.961864942345962E+00, -1.817354558760328E-01, -7.274325589567558E-03,  2.237110686583738E-03, -7.767536748996579E-04,
2439156.895000000, A.D. 1966-Jan-31 09:28:48.0000,      36.576726,  1.268796882561281E+00,  4.969959956083979E+00, -1.845697327536552E-01, -7.284228460429100E-03,  2.195996692628734E-03, -7.751969517420440E-04,
2439160.547500000, A.D. 1966-Feb-04 01:08:24.0000,      36.586283,  1.242174692811496E+00,  4.977909917225568E+00, -1.873982451981046E-01, -7.294403425498475E-03,  2.156918830422217E-03, -7.737502718282359E-04,
2439164.200000000, A.D. 1966-Feb-07 16:48:00.0000,      36.595836,  1.215515195554332E+00,  4.985714104215864E+00, -1.902214058870319E-01, -7.303608978900870E-03,  2.116435921977577E-03, -7.721384066410626E-04,
